start=new Date('2021-12-08T00:00:00.000Z').valueOf();
sats=[{"SITE":"AFETR","DECAY_DATE":null,"RCS_SIZE":"LARGE","REF_FRAME":"TEME","MEAN_ELEMENT_THEORY":"SGP4","COUNTRY_CODE":"US","OBJECT_NAME":"STARLINK-2161","MEAN_ANOMALY":"305.0456","OBJECT_ID":"2021-017AB","REV_AT_EPOCH":"4316","TIME_SYSTEM":"UTC","RA_OF_ASC_NODE":"333.3297","EPOCH":"2021-12-07T16:28:33.767616","MEAN_MOTION_DDOT":"0.0000000000000","EPHEMERIS_TYPE":"0","FILE":"3234935","TLE_LINE2":"2 47747  53.0559 333.3297 0001846  55.0706 305.0456 15.06388122 43163","APOAPSIS":"548.528","CENTER_NAME":"EARTH","LAUNCH_DATE":"2021-03-04","OBJECT_TYPE":"PAYLOAD","GP_ID":"191275276","ELEMENT_SET_NO":"999","NORAD_CAT_ID":"47747","ECCENTRICITY":"0.00018460","TLE_LINE1":"1 47747U 21017AB  21341.68650194 -.00000417  00000-0 -90714-5 0  9990","SEMIMAJOR_AXIS":"6925.385","PERIAPSIS":"545.972","MEAN_MOTION_DOT":"-0.00000417","CLASSIFICATION_TYPE":"U","PERIOD":"95.593","MEAN_MOTION":"15.06388122","INCLINATION":"53.0559","BSTAR":"-0.00000907140000","ARG_OF_PERICENTER":"55.0706"},{"COUNTRY_CODE":"US","REF_FRAME":"TEME","MEAN_ELEMENT_THEORY":"SGP4","DECAY_DATE":null,"RCS_SIZE":"LARGE","SITE":"AFETR","EPOCH":"2021-12-07T16:17:56.820768","REV_AT_EPOCH":"4316","TIME_SYSTEM":"UTC","RA_OF_ASC_NODE":"333.3655","MEAN_ANOMALY":"300.4433","OBJECT_ID":"2021-017AC","OBJECT_NAME":"STARLINK-2162","EPHEMERIS_TYPE":"0","MEAN_MOTION_DDOT":"0.0000000000000","LAUNCH_DATE":"2021-03-04","APOAPSIS":"548.473","TLE_LINE2":"2 47748  53.0564 333.3655 0001764  59.6730 300.4433 15.06387555 43167","CENTER_NAME":"EARTH","FILE":"3234935","OBJECT_TYPE":"PAYLOAD","ECCENTRICITY":"0.00017640","TLE_LINE1":"1 47748U 21017AC  21341.67912987 -.00000733  00000-0 -30345-4 0  9995","SEMIMAJOR_AXIS":"6925.387","NORAD_CAT_ID":"47748","GP_ID":"191275290","ELEMENT_SET_NO":"999","MEAN_MOTION_DOT":"-0.00000733","PERIOD":"95.593","CLASSIFICATION_TYPE":"U","PERIAPSIS":"546.030","ARG_OF_PERICENTER":"59.6730","BSTAR":"-0.00003034500000","INCLINATION":"53.0564","MEAN_MOTION":"15.06387555"},{"FILE":"3235143","TLE_LINE2":"2 47749  53.0565 333.2783 0001759  66.7959 293.3216 15.06401511 43793","APOAPSIS":"548.427","CENTER_NAME":"EARTH","LAUNCH_DATE":"2021-03-04","MEAN_MOTION_DDOT":"0.0000000000000","EPHEMERIS_TYPE":"0","OBJECT_NAME":"STARLINK-2163","MEAN_ANOMALY":"293.3216","OBJECT_ID":"2021-017AD","REV_AT_EPOCH":"4379","TIME_SYSTEM":"UTC","RA_OF_ASC_NODE":"333.2783","EPOCH":"2021-12-07T16:39:09.884160","SITE":"AFETR","DECAY_DATE":null,"RCS_SIZE":"LARGE","REF_FRAME":"TEME","MEAN_ELEMENT_THEORY":"SGP4","COUNTRY_CODE":"US","MEAN_MOTION":"15.06401511","INCLINATION":"53.0565","BSTAR":"0.00013275000000","ARG_OF_PERICENTER":"66.7959","PERIAPSIS":"545.991","MEAN_MOTION_DOT":"0.00001696","PERIOD":"95.592","CLASSIFICATION_TYPE":"U","GP_ID":"191299060","ELEMENT_SET_NO":"999","NORAD_CAT_ID":"47749","TLE_LINE1":"1 47749U 21017AD  21341.69386440  .00001696  00000-0  13275-3 0  9996","ECCENTRICITY":"0.00017590","SEMIMAJOR_AXIS":"6925.344","OBJECT_TYPE":"PAYLOAD"},{"ARG_OF_PERICENTER":"50.4421","BSTAR":"0.00004764700000","INCLINATION":"53.0570","MEAN_MOTION":"15.06394410","MEAN_MOTION_DOT":"0.00000428","CLASSIFICATION_TYPE":"U","PERIOD":"95.592","PERIAPSIS":"545.864","ECCENTRICITY":"0.00019740","TLE_LINE1":"1 47750U 21017AE  21341.67175261  .00000428  00000-0  47647-4 0  9996","SEMIMAJOR_AXIS":"6925.366","NORAD_CAT_ID":"47750","GP_ID":"191274799","ELEMENT_SET_NO":"999","OBJECT_TYPE":"PAYLOAD","LAUNCH_DATE":"2021-03-04","TLE_LINE2":"2 47750  53.0570 333.3917 0001974  50.4421 309.6742 15.06394410 43169","APOAPSIS":"548.598","CENTER_NAME":"EARTH","FILE":"3234944","EPHEMERIS_TYPE":"0","MEAN_MOTION_DDOT":"0.0000000000000","EPOCH":"2021-12-07T16:07:19.425504","REV_AT_EPOCH":"4316","TIME_SYSTEM":"UTC","RA_OF_ASC_NODE":"333.3917","MEAN_ANOMALY":"309.6742","OBJECT_ID":"2021-017AE","OBJECT_NAME":"STARLINK-2164","COUNTRY_CODE":"US","REF_FRAME":"TEME","MEAN_ELEMENT_THEORY":"SGP4","DECAY_DATE":null,"RCS_SIZE":"LARGE","SITE":"AFETR"},{"APOAPSIS":"548.370","TLE_LINE2":"2 47751  53.0530 324.4349 0001674  54.2591 305.8554 15.06401015 43904","CENTER_NAME":"EARTH","FILE":"3234816","LAUNCH_DATE":"2021-03-04","EPHEMERIS_TYPE":"0","MEAN_MOTION_DDOT":"0.0000000000000","MEAN_ANOMALY":"305.8554","OBJECT_ID":"2021-017AF","OBJECT_NAME":"STARLINK-2168","EPOCH":"2021-12-07T10:28:56.397504","REV_AT_EPOCH":"4390","TIME_SYSTEM":"UTC","RA_OF_ASC_NODE":"324.4349","DECAY_DATE":null,"RCS_SIZE":"LARGE","SITE":"AFETR","COUNTRY_CODE":"US","REF_FRAME":"TEME","MEAN_ELEMENT_THEORY":"SGP4","INCLINATION":"53.0530","MEAN_MOTION":"15.06401015","ARG_OF_PERICENTER":"54.2591","BSTAR":"-0.00001266300000","PERIAPSIS":"546.051","MEAN_MOTION_DOT":"-0.00000470","CLASSIFICATION_TYPE":"U","PERIOD":"95.592","GP_ID":"191271847","ELEMENT_SET_NO":"999","ECCENTRICITY":"0.00016740","TLE_LINE1":"1 47751U 21017AF  21341.43676386 -.00000470  00000-0 -12663-4 0  9994","SEMIMAJOR_AXIS":"6925.345","NORAD_CAT_ID":"47751","OBJECT_TYPE":"PAYLOAD"},{"EPOCH":"2021-12-07T17:39:32.143680","RA_OF_ASC_NODE":"338.1119","TIME_SYSTEM":"UTC","REV_AT_EPOCH":"4378","OBJECT_ID":"2021-017AG","MEAN_ANOMALY":"303.1105","OBJECT_NAME":"STARLINK-2169","COUNTRY_CODE":"US","MEAN_ELEMENT_THEORY":"SGP4","REF_FRAME":"TEME","DECAY_DATE":null,"RCS_SIZE":"MEDIUM","SITE":"AFETR","LAUNCH_DATE":"2021-03-04","CENTER_NAME":"EARTH","APOAPSIS":"548.330","TLE_LINE2":"2 47752  53.0563 338.1119 0001631  57.0041 303.1105 15.06404194 43782","FILE":"3235143","EPHEMERIS_TYPE":"0","MEAN_MOTION_DDOT":"0.0000000000000","SEMIMAJOR_AXIS":"6925.336","ECCENTRICITY":"0.00016310","TLE_LINE1":"1 47752U 21017AG  21341.73578870  .00001468  00000-0  11743-3 0  9990","NORAD_CAT_ID":"47752","ELEMENT_SET_NO":"999","GP_ID":"191299812","OBJECT_TYPE":"PAYLOAD","ARG_OF_PERICENTER":"57.0041","BSTAR":"0.00011743000000","INCLINATION":"53.0563","MEAN_MOTION":"15.06404194","PERIOD":"95.592","CLASSIFICATION_TYPE":"U","MEAN_MOTION_DOT":"0.00001468","PERIAPSIS":"546.071"},{"OBJECT_TYPE":"PAYLOAD","NORAD_CAT_ID":"47753","TLE_LINE1":"1 47753U 21017AH  21341.84406824  .00000473  00000-0  50681-4 0  9992","ECCENTRICITY":"0.00017530","SEMIMAJOR_AXIS":"6925.354","GP_ID":"191298560","ELEMENT_SET_NO":"999","MEAN_MOTION_DOT":"0.00000473","PERIOD":"95.592","CLASSIFICATION_TYPE":"U","PERIAPSIS":"546.005","BSTAR":"0.00005068100000","ARG_OF_PERICENTER":"65.9093","MEAN_MOTION":"15.06398222","INCLINATION":"53.0568","REF_FRAME":"TEME","MEAN_ELEMENT_THEORY":"SGP4","COUNTRY_CODE":"US","SITE":"AFETR","DECAY_DATE":null,"RCS_SIZE":"LARGE","REV_AT_EPOCH":"4372","TIME_SYSTEM":"UTC","RA_OF_ASC_NODE":"342.6064","EPOCH":"2021-12-07T20:15:27.495936","OBJECT_NAME":"STARLINK-2170","MEAN_ANOMALY":"294.2080","OBJECT_ID":"2021-017AH","MEAN_MOTION_DDOT":"0.0000000000000","EPHEMERIS_TYPE":"0","LAUNCH_DATE":"2021-03-04","FILE":"3235143","APOAPSIS":"548.433","TLE_LINE2":"2 47753  53.0568 342.6064 0001753  65.9093 294.2080 15.06398222 43727","CENTER_NAME":"EARTH"},{"MEAN_ELEMENT_THEORY":"SGP4","REF_FRAME":"TEME","COUNTRY_CODE":"US","SITE":"AFETR","RCS_SIZE":"LARGE","DECAY_DATE":null,"RA_OF_ASC_NODE":"344.2348","REV_AT_EPOCH":"4363","TIME_SYSTEM":"UTC","EPOCH":"2021-12-07T11:35:18.172608","OBJECT_NAME":"STARLINK-2171","OBJECT_ID":"2021-017AJ","MEAN_ANOMALY":"305.3565","MEAN_MOTION_DDOT":"0.0000000000000","EPHEMERIS_TYPE":"0","LAUNCH_DATE":"2021-03-04","FILE":"3234816","CENTER_NAME":"EARTH","APOAPSIS":"548.319","TLE_LINE2":"2 47754  53.0566 344.2348 0001578  54.7571 305.3565 15.06395891 43632","OBJECT_TYPE":"PAYLOAD","NORAD_CAT_ID":"47754","SEMIMAJOR_AXIS":"6925.361","ECCENTRICITY":"0.00015780","TLE_LINE1":"1 47754U 21017AJ  21341.48284922 -.00000165  00000-0  78115-5 0  9998","ELEMENT_SET_NO":"999","GP_ID":"191271096","CLASSIFICATION_TYPE":"U","PERIOD":"95.592","MEAN_MOTION_DOT":"-0.00000165","PERIAPSIS":"546.133","BSTAR":"0.00000781150000","ARG_OF_PERICENTER":"54.7571","MEAN_MOTION":"15.06395891","INCLINATION":"53.0566"},{"MEAN_MOTION_DOT":"0.00161216","PERIOD":"95.198","CLASSIFICATION_TYPE":"U","PERIAPSIS":"527.185","ARG_OF_PERICENTER":"52.0216","BSTAR":"0.00893330000000","INCLINATION":"53.0553","MEAN_MOTION":"15.12632664","OBJECT_TYPE":"PAYLOAD","ECCENTRICITY":"0.00014360","TLE_LINE1":"1 47755U 21017AK  21341.78146818  .00161216  00000-0  89333-2 0  9998","SEMIMAJOR_AXIS":"6906.312","NORAD_CAT_ID":"47755","GP_ID":"191299559","ELEMENT_SET_NO":"999","EPHEMERIS_TYPE":"0","MEAN_MOTION_DDOT":"0.0000000000000","LAUNCH_DATE":"2021-03-04","APOAPSIS":"529.169","TLE_LINE2":"2 47755  53.0553 337.6885 0001436  52.0216 308.0905 15.12632664 43740","CENTER_NAME":"EARTH","FILE":"3235143","COUNTRY_CODE":"US","REF_FRAME":"TEME","MEAN_ELEMENT_THEORY":"SGP4","RCS_SIZE":"LARGE","DECAY_DATE":null,"SITE":"AFETR","EPOCH":"2021-12-07T18:45:18.850752","REV_AT_EPOCH":"4374","TIME_SYSTEM":"UTC","RA_OF_ASC_NODE":"337.6885","MEAN_ANOMALY":"308.0905","OBJECT_ID":"2021-017AK","OBJECT_NAME":"STARLINK-2172"},{"SITE":"AFETR","DECAY_DATE":null,"RCS_SIZE":"LARGE","MEAN_ELEMENT_THEORY":"SGP4","REF_FRAME":"TEME","COUNTRY_CODE":"US","OBJECT_NAME":"STARLINK-2174","OBJECT_ID":"2021-017AL","MEAN_ANOMALY":"299.7087","RA_OF_ASC_NODE":"342.7678","REV_AT_EPOCH":"4372","TIME_SYSTEM":"UTC","EPOCH":"2021-12-07T19:27:41.267520","MEAN_MOTION_DDOT":"0.0000000000000","EPHEMERIS_TYPE":"0","FILE":"3235143","CENTER_NAME":"EARTH","APOAPSIS":"548.589","TLE_LINE2":"2 47756  53.0569 342.7678 0001948  60.4096 299.7087 15.06391238 43729","LAUNCH_DATE":"2021-03-04","OBJECT_TYPE":"PAYLOAD","ELEMENT_SET_NO":"999","GP_ID":"191300313","NORAD_CAT_ID":"47756","SEMIMAJOR_AXIS":"6925.375","TLE_LINE1":"1 47756U 21017AL  21341.81089430  .00001475  00000-0  11792-3 0  9994","ECCENTRICITY":"0.00019480","PERIAPSIS":"545.891","PERIOD":"95.593","CLASSIFICATION_TYPE":"U","MEAN_MOTION_DOT":"0.00001475","MEAN_MOTION":"15.06391238","INCLINATION":"53.0569","BSTAR":"0.00011792000000","ARG_OF_PERICENTER":"60.4096"}];
